[{"OBJECT_NAME":"CUTE-1.7+APD II (CO-65)","OBJECT_ID":"2008-021C","EPOCH":"2022-08-18T18:20:21.829920","MEAN_MOTION":14.89768978,"ECCENTRICITY":0.0013523,"INCLINATION":97.6623,"RA_OF_ASC_NODE":199.6613,"ARG_OF_PERICENTER":33.8466,"MEAN_ANOMALY":326.3612,"EPHEMERIS_TYPE":0,"CLASSIFICATION_TYPE":"U","NORAD_CAT_ID":32785,"ELEMENT_SET_NO":999,"REV_AT_EPOCH":77576,"BSTAR":0.00018682,"MEAN_MOTION_DOT":1.74e-5,"MEAN_MOTION_DDOT":0},{"OBJECT_NAME":"DELFI-C3 (DO-64)","OBJECT_ID":"2008-021G","EPOCH":"2022-08-18T20:34:10.435008","MEAN_MOTION":15.1500221,"ECCENTRICITY":0.0012218,"INCLINATION":97.3376,"RA_OF_ASC_NODE":254.9419,"ARG_OF_PERICENTER":106.7046,"MEAN_ANOMALY":253.5529,"EPHEMERIS_TYPE":0,"CLASSIFICATION_TYPE":"U","NORAD_CAT_ID":32789,"ELEMENT_SET_NO":999,"REV_AT_EPOCH":78137,"BSTAR":0.00082236,"MEAN_MOTION_DOT":0.00015339,"MEAN_MOTION_DDOT":0},{"OBJECT_NAME":"SEEDS II (CO-66)","OBJECT_ID":"2008-021J","EPOCH":"2022-08-19T04:23:08.930400","MEAN_MOTION":14.92936691,"ECCENTRICITY":0.0012272,"INCLINATION":97.616,"RA_OF_ASC_NODE":205.4943,"ARG_OF_PERICENTER":348.7008,"MEAN_ANOMALY":11.3935,"EPHEMERIS_TYPE":0,"CLASSIFICATION_TYPE":"U","NORAD_CAT_ID":32791,"ELEMENT_SET_NO":999,"REV_AT_EPOCH":77663,"BSTAR":0.00024293,"MEAN_MOTION_DOT":2.469e-5,"MEAN_MOTION_DDOT":0},{"OBJECT_NAME":"YUBILEINY (RS-30)","OBJECT_ID":"2008-025A","EPOCH":"2022-08-19T03:43:23.598336","MEAN_MOTION":12.43112519,"ECCENTRICITY":0.0019891,"INCLINATION":82.5047,"RA_OF_ASC_NODE":144.9551,"ARG_OF_PERICENTER":120.4449,"MEAN_ANOMALY":239.8595,"EPHEMERIS_TYPE":0,"CLASSIFICATION_TYPE":"U","NORAD_CAT_ID":32953,"ELEMENT_SET_NO":999,"REV_AT_EPOCH":64612,"BSTAR":0.0001,"MEAN_MOTION_DOT":2.4e-7,"MEAN_MOTION_DDOT":0},{"OBJECT_NAME":"KKS-1 (KISEKI)","OBJECT_ID":"2009-002H","EPOCH":"2022-08-18T21:06:29.054880","MEAN_MOTION":14.76088811,"ECCENTRICITY":0.0010244,"INCLINATION":98.2088,"RA_OF_ASC_NODE":113.9362,"ARG_OF_PERICENTER":112.0097,"MEAN_ANOMALY":248.2201,"EPHEMERIS_TYPE":0,"CLASSIFICATION_TYPE":"U","NORAD_CAT_ID":33499,"ELEMENT_SET_NO":999,"REV_AT_EPOCH":72945,"BSTAR":9.8207e-5,"MEAN_MOTION_DOT":6.24e-6,"MEAN_MOTION_DDOT":0},{"OBJECT_NAME":"SWISSCUBE","OBJECT_ID":"2009-051B","EPOCH":"2022-08-18T12:44:24.291744","MEAN_MOTION":14.56928711,"ECCENTRICITY":0.0006716,"INCLINATION":98.5622,"RA_OF_ASC_NODE":88.1835,"ARG_OF_PERICENTER":209.6212,"MEAN_ANOMALY":150.4606,"EPHEMERIS_TYPE":0,"CLASSIFICATION_TYPE":"U","NORAD_CAT_ID":35932,"ELEMENT_SET_NO":999,"REV_AT_EPOCH":68517,"BSTAR":0.00012351,"MEAN_MOTION_DOT":5.06e-6,"MEAN_MOTION_DDOT":0},{"OBJECT_NAME":"BEESAT-1","OBJECT_ID":"2009-051C","EPOCH":"2022-08-18T08:21:10.656000","MEAN_MOTION":14.56937131,"ECCENTRICITY":0.0004726,"INCLINATION":98.556,"RA_OF_ASC_NODE":89.5823,"ARG_OF_PERICENTER":222.1811,"MEAN_ANOMALY":137.9023,"EPHEMERIS_TYPE":0,"CLASSIFICATION_TYPE":"U","NORAD_CAT_ID":35933,"ELEMENT_SET_NO":999,"REV_AT_EPOCH":68526,"BSTAR":0.00011969,"MEAN_MOTION_DOT":4.89e-6,"MEAN_MOTION_DDOT":0},{"OBJECT_NAME":"ITUPSAT1","OBJECT_ID":"2009-051E","EPOCH":"2022-08-19T03:49:25.999680","MEAN_MOTION":14.56041355,"ECCENTRICITY":0.0007017,"INCLINATION":98.566,"RA_OF_ASC_NODE":90.4545,"ARG_OF_PERICENTER":225.7856,"MEAN_ANOMALY":134.2765,"EPHEMERIS_TYPE":0,"CLASSIFICATION_TYPE":"U","NORAD_CAT_ID":35935,"ELEMENT_SET_NO":999,"REV_AT_EPOCH":68503,"BSTAR":0.00010172,"MEAN_MOTION_DOT":3.99e-6,"MEAN_MOTION_DDOT":0},{"OBJECT_NAME":"XIWANG-1 (HOPE-1)","OBJECT_ID":"2009-072B","EPOCH":"2022-08-18T16:04:49.168128","MEAN_MOTION":13.1637097,"ECCENTRICITY":0.000722,"INCLINATION":100.188,"RA_OF_ASC_NODE":199.7593,"ARG_OF_PERICENTER":193.0622,"MEAN_ANOMALY":167.0305,"EPHEMERIS_TYPE":0,"CLASSIFICATION_TYPE":"U","NORAD_CAT_ID":36122,"ELEMENT_SET_NO":999,"REV_AT_EPOCH":60899,"BSTAR":9.2051e-6,"MEAN_MOTION_DOT":-3.9e-7,"MEAN_MOTION_DDOT":0},{"OBJECT_NAME":"JUGNU","OBJECT_ID":"2011-058B","EPOCH":"2022-08-19T02:53:17.278368","MEAN_MOTION":14.12799501,"ECCENTRICITY":0.0019086,"INCLINATION":19.9601,"RA_OF_ASC_NODE":155.359,"ARG_OF_PERICENTER":127.9062,"MEAN_ANOMALY":258.5264,"EPHEMERIS_TYPE":0,"CLASSIFICATION_TYPE":"U","NORAD_CAT_ID":37839,"ELEMENT_SET_NO":999,"REV_AT_EPOCH":56112,"BSTAR":6.8868e-5,"MEAN_MOTION_DOT":3.96e-6,"MEAN_MOTION_DDOT":0},{"OBJECT_NAME":"SRMSAT","OBJECT_ID":"2011-058D","EPOCH":"2022-08-18T17:41:21.929568","MEAN_MOTION":14.10766211,"ECCENTRICITY":0.0011695,"INCLINATION":19.9707,"RA_OF_ASC_NODE":238.437,"ARG_OF_PERICENTER":309.0817,"MEAN_ANOMALY":208.8953,"EPHEMERIS_TYPE":0,"CLASSIFICATION_TYPE":"U","NORAD_CAT_ID":37841,"ELEMENT_SET_NO":999,"REV_AT_EPOCH":56004,"BSTAR":5.4802e-5,"MEAN_MOTION_DOT":3.64e-6,"MEAN_MOTION_DDOT":0},{"OBJECT_NAME":"M-CUBED & EXP-1 PRIME","OBJECT_ID":"2011-061F","EPOCH":"2022-08-18T16:11:17.956896","MEAN_MOTION":15.13196098,"ECCENTRICITY":0.0151119,"INCLINATION":101.7175,"RA_OF_ASC_NODE":22.7501,"ARG_OF_PERICENTER":235.7842,"MEAN_ANOMALY":122.8977,"EPHEMERIS_TYPE":0,"CLASSIFICATION_TYPE":"U","NORAD_CAT_ID":37855,"ELEMENT_SET_NO":999,"REV_AT_EPOCH":59064,"BSTAR":0.00048901,"MEAN_MOTION_DOT":0.00011373,"MEAN_MOTION_DDOT":0},{"OBJECT_NAME":"STRAND-1","OBJECT_ID":"2013-009E","EPOCH":"2022-08-19T02:37:41.119680","MEAN_MOTION":14.35315447,"ECCENTRICITY":0.0010313,"INCLINATION":98.4027,"RA_OF_ASC_NODE":67.6035,"ARG_OF_PERICENTER":85.2421,"MEAN_ANOMALY":274.9943,"EPHEMERIS_TYPE":0,"CLASSIFICATION_TYPE":"U","NORAD_CAT_ID":39090,"ELEMENT_SET_NO":999,"REV_AT_EPOCH":49640,"BSTAR":7.6531e-5,"MEAN_MOTION_DOT":1.77e-6,"MEAN_MOTION_DDOT":0},{"OBJECT_NAME":"SOMP","OBJECT_ID":"2013-015E","EPOCH":"2022-08-18T08:44:08.470752","MEAN_MOTION":15.29915814,"ECCENTRICITY":0.0035574,"INCLINATION":64.86,"RA_OF_ASC_NODE":218.4826,"ARG_OF_PERICENTER":270.844,"MEAN_ANOMALY":88.8616,"EPHEMERIS_TYPE":0,"CLASSIFICATION_TYPE":"U","NORAD_CAT_ID":39134,"ELEMENT_SET_NO":999,"REV_AT_EPOCH":51632,"BSTAR":0.00063445,"MEAN_MOTION_DOT":0.0001865,"MEAN_MOTION_DDOT":0},{"OBJECT_NAME":"BEESAT-3","OBJECT_ID":"2013-015F","EPOCH":"2022-08-18T12:28:18.903072","MEAN_MOTION":15.24868363,"ECCENTRICITY":0.0039444,"INCLINATION":64.8642,"RA_OF_ASC_NODE":255.5548,"ARG_OF_PERICENTER":275.8322,"MEAN_ANOMALY":83.8311,"EPHEMERIS_TYPE":0,"CLASSIFICATION_TYPE":"U","NORAD_CAT_ID":39135,"ELEMENT_SET_NO":999,"REV_AT_EPOCH":51557,"BSTAR":0.00040737,"MEAN_MOTION_DOT":0.00010198,"MEAN_MOTION_DDOT":0},{"OBJECT_NAME":"BEESAT-2","OBJECT_ID":"2013-015G","EPOCH":"2022-08-18T11:27:29.673792","MEAN_MOTION":15.23824884,"ECCENTRICITY":0.0020662,"INCLINATION":64.8731,"RA_OF_ASC_NODE":264.2248,"ARG_OF_PERICENTER":296.3704,"MEAN_ANOMALY":63.5304,"EPHEMERIS_TYPE":0,"CLASSIFICATION_TYPE":"U","NORAD_CAT_ID":39136,"ELEMENT_SET_NO":999,"REV_AT_EPOCH":51536,"BSTAR":0.00036679,"MEAN_MOTION_DOT":8.734e-5,"MEAN_MOTION_DDOT":0},{"OBJECT_NAME":"ZACUBE-1 (TSHEPISOSAT)","OBJECT_ID":"2013-066B","EPOCH":"2022-08-18T16:01:42.296160","MEAN_MOTION":14.82516973,"ECCENTRICITY":0.0056938,"INCLINATION":97.6413,"RA_OF_ASC_NODE":199.3795,"ARG_OF_PERICENTER":199.1413,"MEAN_ANOMALY":160.7662,"EPHEMERIS_TYPE":0,"CLASSIFICATION_TYPE":"U","NORAD_CAT_ID":39417,"ELEMENT_SET_NO":999,"REV_AT_EPOCH":47234,"BSTAR":0.00015775,"MEAN_MOTION_DOT":1.25e-5,"MEAN_MOTION_DDOT":0}]