CUTE-1.7+APD II (CO-65) 
1 32785U 08021C   22230.76414155  .00001740  00000+0  18682-3 0  9997
2 32785  97.6623 199.6613 0013523  33.8466 326.3612 14.89768978775761
DELFI-C3 (DO-64)        
1 32789U 08021G   22230.85706522  .00015339  00000+0  82236-3 0  9998
2 32789  97.3376 254.9419 0012218 106.7046 253.5529 15.15002210781372
SEEDS II (CO-66)        
1 32791U 08021J   22231.18274225  .00002469  00000+0  24293-3 0  9997
2 32791  97.6160 205.4943 0012272 348.7008  11.3935 14.92936691776635
YUBILEINY (RS-30)       
1 32953U 08025A   22231.15513424  .00000024  00000+0  10000-3 0  9991
2 32953  82.5047 144.9551 0019891 120.4449 239.8595 12.43112519646120
KKS-1 (KISEKI)          
1 33499U 09002H   22230.87950295  .00000624  00000+0  98207-4 0  9994
2 33499  98.2088 113.9362 0010244 112.0097 248.2201 14.76088811729451
SWISSCUBE               
1 35932U 09051B   22230.53083671  .00000506  00000+0  12351-3 0  9994
2 35932  98.5622  88.1835 0006716 209.6212 150.4606 14.56928711685174
BEESAT-1                
1 35933U 09051C   22230.34804000  .00000489  00000+0  11969-3 0  9995
2 35933  98.5560  89.5823 0004726 222.1811 137.9023 14.56937131685261
ITUPSAT1                
1 35935U 09051E   22231.15932870  .00000399  00000+0  10172-3 0  9999
2 35935  98.5660  90.4545 0007017 225.7856 134.2765 14.56041355685032
XIWANG-1 (HOPE-1)       
1 36122U 09072B   22230.67001352 -.00000039  00000+0  92051-5 0  9999
2 36122 100.1880 199.7593 0007220 193.0622 167.0305 13.16370970608992
JUGNU                   
1 37839U 11058B   22231.12033887  .00000396  00000+0  68868-4 0  9994
2 37839  19.9601 155.3590 0019086 127.9062 258.5264 14.12799501561123
SRMSAT                  
1 37841U 11058D   22230.73705937  .00000364  00000+0  54802-4 0  9993
2 37841  19.9707 238.4370 0011695 309.0817 208.8953 14.10766211560044
M-CUBED & EXP-1 PRIME   
1 37855U 11061F   22230.67451339  .00011373  00000+0  48901-3 0  9993
2 37855 101.7175  22.7501 0151119 235.7842 122.8977 15.13196098590641
STRAND-1                
1 39090U 13009E   22231.10950370  .00000177  00000+0  76531-4 0  9999
2 39090  98.4027  67.6035 0010313  85.2421 274.9943 14.35315447496408
SOMP                    
1 39134U 13015E   22230.36398693  .00018650  00000+0  63445-3 0  9990
2 39134  64.8600 218.4826 0035574 270.8440  88.8616 15.29915814516325
BEESAT-3                
1 39135U 13015F   22230.51966323  .00010198  00000+0  40737-3 0  9997
2 39135  64.8642 255.5548 0039444 275.8322  83.8311 15.24868363515573
BEESAT-2                
1 39136U 13015G   22230.47742678  .00008734  00000+0  36679-3 0  9991
2 39136  64.8731 264.2248 0020662 296.3704  63.5304 15.23824884515364
ZACUBE-1 (TSHEPISOSAT)  
1 39417U 13066B   22230.66785065  .00001250  00000+0  15775-3 0  9997
2 39417  97.6413 199.3795 0056938 199.1413 160.7662 14.82516973472342
